{
  "type": "FeatureCollection",
  "features": [
    {
      "type": "Feature",
      "properties": {
        "slug": "montane",
        "title": "Montane"
      },
      "geometry": {
        "type": "Polygon",
        "coordinates": [
          [
            [-115.05774151262611, 49.493597364426904],
            [-115.05774151262611, 49.49256800725081],
            [-115.05784055939559, 49.49216054738844],
            [-115.0580716685243, 49.49153862842732],
            [-115.05797262175481, 49.49095959332621],
            [-115.05628882667409, 49.49059501215589],
            [-115.05354853271932, 49.490702242193635],
            [-115.05044506727664, 49.49147429153203],
            [-115.05004888019899, 49.49261089756561],
            [-115.05031300491743, 49.49387614493702],
            [-115.0529542521027, 49.4941120348974],
            [-115.05510026544083, 49.493983367787166],
            [-115.05774151262611, 49.493597364426904]
          ]
        ]
      }
    },
    {
      "type": "Feature",
      "properties": {
        "slug": "the-cedars",
        "title": "The Cedars"
      },
      "geometry": {
        "type": "Polygon",
        "coordinates": [
          [
            [-115.08929958670058, 49.48659120567939],
            [-115.08965900116118, 49.48640446954326],
            [-115.0900749870937, 49.485924047093135],
            [-115.08991321478645, 49.48533852585797],
            [-115.08948490355792, 49.48402900174014],
            [-115.08897647621434, 49.48318821858791],
            [-115.08763564312873, 49.48261258018337],
            [-115.0857868165853, 49.48240237978189],
            [-115.08252826011524, 49.48244742282685],
            [-115.08123408165912, 49.48304799279572],
            [-115.08107230935188, 49.48474456316001],
            [-115.08176561925933, 49.48591561283888],
            [-115.0843770865009, 49.48657619260632],
            [-115.08929958670058, 49.48659120567939]
          ]
        ]
      }
    }
  ]
}
